{
  "64178": {
    "noradId": "64178",
    "tle": [
      "1 64178C 25113J   26099.44631944  .00052942  00000+0  17848-2 0   991",
      "2 64178  53.1598 308.2600 0001199  94.2246 286.9282 15.30156028    14"
    ]
  },
  "64179": {
    "noradId": "64179",
    "tle": [
      "1 64179C 25113K   26099.39145833  .00032936  00000+0  11102-2 0   991",
      "2 64179  53.1581 308.1270 0001053  93.1281 183.3809 15.30171454    10"
    ]
  },
  "64180": {
    "noradId": "64180",
    "tle": [
      "1 64180C 25113L   26099.39909722  .00005737  00000+0  19337-3 0   996",
      "2 64180  53.1603 308.3170 0001154  88.3090 113.9814 15.30184053    18"
    ]
  },
  "64181": {
    "noradId": "64181",
    "tle": [
      "1 64181C 25113M   26099.44354167  .00036401  00000+0  12269-2 0   998",
      "2 64181  53.1583 308.3975 0000890  94.3534 207.4940 15.30171545    16"
    ]
  },
  "64182": {
    "noradId": "64182",
    "tle": [
      "1 64182C 25113N   26099.43381944  .00037705  00000+0  12710-2 0   990",
      "2 64182  53.1602 308.2915 0001038  93.0694 230.8093 15.30168477    19"
    ]
  },
  "64183": {
    "noradId": "64183",
    "tle": [
      "1 64183C 25113P   26099.47062500  .00055702  00000+0  18791-2 0   991",
      "2 64183  53.1580 308.2984 0000851  99.6899 339.7569 15.30133910    13"
    ]
  },
  "64184": {
    "noradId": "64184",
    "tle": [
      "1 64184C 25113Q   26099.48312500  .00036162  00000+0  12189-2 0   995",
      "2 64184  53.1576 308.2749 0000838  61.7902  69.1480 15.30170805    18"
    ]
  },
  "64185": {
    "noradId": "64185",
    "tle": [
      "1 64185C 25113R   26099.38798611  .00017934  00000+0  60452-3 0   999",
      "2 64185  53.1597 308.5631 0001088  94.1636 308.0041 15.30178019    10"
    ]
  },
  "64186": {
    "noradId": "64186",
    "tle": [
      "1 64186C 25113S   26099.46020833  .00013069  00000+0  44048-3 0   991",
      "2 64186  53.1595 307.9628 0001224  95.0900 118.9286 15.30184069    15"
    ]
  },
  "64187": {
    "noradId": "64187",
    "tle": [
      "1 64187C 25113T   26099.42201389  .00028938  00000+0  97546-3 0   997",
      "2 64187  53.1588 308.4536 0000786  93.4930 112.9624 15.30173230    17"
    ]
  },
  "64188": {
    "noradId": "64188",
    "tle": [
      "1 64188C 25113U   26099.44909722  .00040835  00000+0  13763-2 0   994",
      "2 64188  53.1589 308.3006 0001254  95.3543 272.0115 15.30169896    18"
    ]
  },
  "64189": {
    "noradId": "64189",
    "tle": [
      "1 64189C 25113V   26099.40326389  .00037392  00000+0  12605-2 0   991",
      "2 64189  53.1581 308.0772 0000934  96.6191 239.1528 15.30166790    17"
    ]
  },
  "64190": {
    "noradId": "64190",
    "tle": [
      "1 64190C 25113W   26099.42131944  .00006183  00000+0  20827-3 0   996",
      "2 64190  53.1575 308.5681 0000694 126.4022  18.0037 15.30209561    17"
    ]
  },
  "64191": {
    "noradId": "64191",
    "tle": [
      "1 64191C 25113X   26099.41368056  .00039728  00000+0  13392-2 0   991",
      "2 64191  53.1575 308.6594 0000980  95.7566 337.5199 15.30167367    16"
    ]
  },
  "64192": {
    "noradId": "64192",
    "tle": [
      "1 64192C 25113Y   26099.41645833  .00019765  00000+0  66619-3 0   993",
      "2 64192  53.1585 308.5129 0000987  84.0189  74.3629 15.30180568    12"
    ]
  },
  "64193": {
    "noradId": "64193",
    "tle": [
      "1 64193C 25113Z   26099.44215278  .00021496  00000+0  72463-3 0   991",
      "2 64193  53.1575 307.8536 0001005 100.4886 112.8996 15.30175262    15"
    ]
  },
  "64194": {
    "noradId": "64194",
    "tle": [
      "1 64194C 25113AA  26099.40743056  .00013853  00000+0  46698-3 0   997",
      "2 64194  53.1607 308.3424 0001141  88.8605 124.4673 15.30179551    19"
    ]
  },
  "64195": {
    "noradId": "64195",
    "tle": [
      "1 64195C 25113AB  26099.46298611  .00093268  00000+0  31357-2 0   999",
      "2 64195  53.1600 308.0066 0001517  74.0535 126.1894 15.30224193    15"
    ]
  },
  "64196": {
    "noradId": "64196",
    "tle": [
      "1 64196C 25113AC  26099.48034722  .00036114  00000+0  12172-2 0   994",
      "2 64196  53.1599 308.1214 0001089  92.2073 104.8515 15.30172471    16"
    ]
  },
  "64203": {
    "noradId": "64203",
    "tle": [
      "1 64203C 25117A   26099.38729167 -.00056405  00000+0 -19050-2 0   999",
      "2 64203  53.1593 256.9455 0000265  95.9419  13.1546 15.30153522    17"
    ]
  },
  "64204": {
    "noradId": "64204",
    "tle": [
      "1 64204C 25117B   26099.43868056  .00032469  00000+0  10944-2 0   992",
      "2 64204  53.1568 256.9674 0000902  93.6614 164.8205 15.30174454    16"
    ]
  },
  "64205": {
    "noradId": "64205",
    "tle": [
      "1 64205C 25117C   26099.40118056  .00038378  00000+0  12936-2 0   996",
      "2 64205  53.1565 257.1750 0000998  93.9450 300.3985 15.30170162    12"
    ]
  },
  "64206": {
    "noradId": "64206",
    "tle": [
      "1 64206C 25117D   26099.47201389  .00018403  00000+0  62032-3 0   996",
      "2 64206  53.1566 256.8827 0000801  86.1348 321.1771 15.30178617    15"
    ]
  },
  "64207": {
    "noradId": "64207",
    "tle": [
      "1 64207C 25117E   26099.39145833  .00036700  00000+0  12368-2 0   995",
      "2 64207  53.1598 256.8909 0000381 106.7236  42.7045 15.30176587    14"
    ]
  },
  "64208": {
    "noradId": "64208",
    "tle": [
      "1 64208C 25117F   26099.48034722  .00009594  00000+0  32342-3 0   996",
      "2 64208  53.1595 256.3189 0001242  94.2848 266.5265 15.30180396    17"
    ]
  },
  "64209": {
    "noradId": "64209",
    "tle": [
      "1 64209C 25117G   26099.38173611  .00034690  00000+0  11691-2 0   995",
      "2 64209  53.1597 256.8871 0001159  93.6357  31.2821 15.30176778    12"
    ]
  },
  "64210": {
    "noradId": "64210",
    "tle": [
      "1 64210C 25117H   26099.47062500  .00013939  00000+0  46955-3 0   996",
      "2 64210  53.1595 256.3853 0000971  76.8604 218.5621 15.30201460    11"
    ]
  },
  "64211": {
    "noradId": "64211",
    "tle": [
      "1 64211C 25117J   26099.40326389  .00034133  00000+0  11506-2 0   990",
      "2 64211  53.1581 256.5700 0001153  96.1417 252.1480 15.30169181    10"
    ]
  },
  "64212": {
    "noradId": "64212",
    "tle": [
      "1 64212C 25117K   26099.42687500  .00019595  00000+0  66032-3 0   998",
      "2 64212  53.1591 256.5286 0000932  96.4224 347.0993 15.30187329    11"
    ]
  },
  "64213": {
    "noradId": "64213",
    "tle": [
      "1 64213C 25117L   26099.48451389  .00009073  00000+0  30578-3 0   995",
      "2 64213  53.1571 256.8674 0000993  90.3545   2.5818 15.30188294    11"
    ]
  },
  "64214": {
    "noradId": "64214",
    "tle": [
      "1 64214C 25117M   26099.38868056  .00023465  00000+0  79084-3 0   994",
      "2 64214  53.1584 256.6610 0001173  98.3450 157.9327 15.30181019    16"
    ]
  },
  "64215": {
    "noradId": "64215",
    "tle": [
      "1 64215C 25117N   26099.41993056  .00005750  00000+0  19390-3 0   999",
      "2 64215  53.1577 256.9127 0001083  98.8797 126.1426 15.30170605    11"
    ]
  },
  "64216": {
    "noradId": "64216",
    "tle": [
      "1 64216C 25117P   26099.45673611  .00021304  00000+0  71789-3 0   999",
      "2 64216  53.1600 256.5606 0000789  88.4965  72.3599 15.30187831    13"
    ]
  },
  "64217": {
    "noradId": "64217",
    "tle": [
      "1 64217C 25117Q   26099.39979167  .00038149  00000+0  12858-2 0   994",
      "2 64217  53.1567 257.2408 0001171  92.7058 264.9006 15.30170493    19"
    ]
  },
  "64218": {
    "noradId": "64218",
    "tle": [
      "1 64218C 25117R   26099.42548611  .00003759  00000+0  12685-3 0   993",
      "2 64218  53.1596 256.6060 0001666 101.1814 299.8404 15.30144291    19"
    ]
  },
  "64219": {
    "noradId": "64219",
    "tle": [
      "1 64219C 25117S   26099.39076389  .00032969  00000+0  11112-2 0   996",
      "2 64219  53.1596 256.8226 0001223  97.4432  83.0626 15.30175415    19"
    ]
  },
  "64220": {
    "noradId": "64220",
    "tle": [
      "1 64220C 25117T   26099.40604167 -.00169140  00000+0 -56982-2 0   999",
      "2 64220  53.1586 256.9100 0001281  97.6579  85.7013 15.30290869    10"
    ]
  },
  "64221": {
    "noradId": "64221",
    "tle": [
      "1 64221C 25117U   26099.39840278  .00036570  00000+0  12323-2 0   992",
      "2 64221  53.1582 256.9700 0001051  95.0648  34.4747 15.30180743    11"
    ]
  },
  "64222": {
    "noradId": "64222",
    "tle": [
      "1 64222C 25117V   26099.45951389  .00024080  00000+0  81122-3 0   993",
      "2 64222  53.1573 256.7641 0000550 106.1980 319.4422 15.30195221    13"
    ]
  },
  "64223": {
    "noradId": "64223",
    "tle": [
      "1 64223C 25117W   26099.42270833  .00034405  00000+0  11595-2 0   997",
      "2 64223  53.1569 257.0049 0000811  96.1299  91.7664 15.30175853    13"
    ]
  },
  "64224": {
    "noradId": "64224",
    "tle": [
      "1 64224C 25117X   26099.46645833  .00017854  00000+0  60159-3 0   998",
      "2 64224  53.1598 256.5491 0001143  93.7772 103.2158 15.30190924    12"
    ]
  },
  "64225": {
    "noradId": "64225",
    "tle": [
      "1 64225C 25117Y   26099.46993056  .00018488  00000+0  62293-3 0   997",
      "2 64225  53.1583 256.6457 0001047  95.1851  62.7810 15.30192004    12"
    ]
  },
  "64226": {
    "noradId": "64226",
    "tle": [
      "1 64226C 25117Z   26099.46715278  .00020965  00000+0  70711-3 0   993",
      "2 64226  53.1571 256.7601 0000996  96.6948 353.7224 15.30157442    16"
    ]
  },
  "64227": {
    "noradId": "64227",
    "tle": [
      "1 64227C 25117AA  26099.44354167  .00031643  00000+0  10666-2 0   995",
      "2 64227  53.1592 256.6974 0001228  87.9249 319.4229 15.30171800    16"
    ]
  },
  "64228": {
    "noradId": "64228",
    "tle": [
      "1 64228C 25117AB  26099.44562500  .00023210  00000+0  78223-3 0   993",
      "2 64228  53.1587 256.4032 0001008  91.4853 112.8333 15.30180859    16"
    ]
  }
}